{
  "type": "FeatureCollection",
  "name": "SOGREAH_ZONES",
  "crs": { "type": "name", "properties": { "name": "urn:ogc:def:crs:OGC:1.3:CRS84" } },
  "features": [
    {
      "type": "Feature",
      "properties": { "param": "P0", "value": 10, "name": "P0 = 10 mm", "fill": "#81C784", "clipped": true, "p0": 10 },
      "geometry": {"type":"Polygon","coordinates":[[[10.862164177688426,34.82034654024224],[10.856293,34.830879],[10.860362,34.836819],[10.86671,34.841255],[10.875499,34.849068],[10.916336,34.87357],[10.916514,34.913315],[10.924952,34.93412],[10.917654,34.957424],[10.945863,34.983532],[10.984366,34.999413],[11.018106,35.034191],[11.022452,35.064503],[11.01588,35.092842],[11.03499,35.107056],[11.04883,35.131222],[11.062912,35.153641],[11.092316,35.173939],[11.111578,35.205593],[11.131352,35.21796],[11.15916,35.218758],[11.160782,35.238232],[11.147104,35.244007],[11.122081,35.253647],[11.101329,35.26683],[11.06589,35.303268],[11.042232,35.334435],[11.037188,35.370823],[11.049412,35.391254],[11.04553,35.434753],[11.050666,35.459782],[11.05769,35.486732],[11.085057,35.506786],[11.039236,35.518501],[11.023936,35.53376],[11.014903,35.555161],[11.013927,35.562893],[11.011973,35.579048],[11.014619398263175,35.591039637302536],[10.724081833333333,35.469982305555554],[10.60533325,35.39770058333333],[10.527888555555556,35.320255861111114],[10.398814027777778,35.222159222222224],[10.269739527777778,35.108573666666665],[10.212946722222222,34.927869333333334],[10.166479888888889,34.721350111111114],[10.233598638888887,34.59227558333333],[10.30071738888889,34.51999386111111],[10.34202125,34.43738616666666],[10.434954888888889,34.53548280555555],[10.548540472222221,34.550971749999995],[10.595007305555557,34.56129769444444],[10.606325138194459,34.58069969822476],[10.607432,34.59333],[10.615001,34.603584],[10.619884,34.615871],[10.621429,34.626289],[10.625255,34.633247],[10.634288,34.637886],[10.67156712414563,34.64795393818302],[10.724081833333333,34.68004625],[10.765385666666667,34.74200202777778],[10.862164177688426,34.82034654024224]]]}
    },
    {
      "type": "Feature",
      "properties": { "param": "P0", "value": 20, "name": "P0 = 20 mm", "fill": "#64B5F6", "clipped": true, "p0": 20 },
      "geometry": {"type":"Polygon","coordinates":[[[10.200164027777777,36.12577683333333],[10.123455055555556,36.18763663888888],[10.095919166666667,36.26680233333333],[10.07182525,36.30466419444444],[10.030521416666668,36.31154816666666],[9.992659555555555,36.290896249999996],[9.951355694444445,36.26336033333333],[9.916935833333334,36.24959238888889],[9.848096083333333,36.24959238888889],[9.737952499999999,36.2186145],[9.617482944444445,36.16354272222222],[9.583063083333332,36.13600683333333],[9.586505055555556,36.06372508333333],[9.586505055555556,36.01897925],[9.53487525,35.98800136111111],[9.50045538888889,35.970791444444444],[9.466035527777777,35.97423341666667],[9.424731666666666,35.960465472222225],[9.40063775,35.93292958333333],[9.379985833333334,35.90883566666667],[9.345565972222223,35.90539369444444],[9.314588083333334,35.89850969444444],[9.24230636111111,35.89162572222222],[9.187234555555555,35.89162572222222],[9.128720777777778,35.91227766666667],[9.090858916666667,35.953581500000006],[9.049555083333333,35.963907472222225],[9.008251222222222,35.970791444444444],[8.994483277777777,35.94669752777777],[8.970389361111112,35.92604561111111],[8.953179416666666,35.93981355555555],[8.929085527777778,35.953581500000006],[8.901549611111111,35.95013952777778],[8.891223666666667,35.91571963888889],[8.87057175,35.90539369444444],[8.853361805555556,35.89850969444444],[8.856803777777777,35.85376388888889],[8.877455722222223,35.809018055555555],[8.891223666666667,35.760830222222225],[8.925643527777778,35.69887444444444],[8.9359695,35.67133855555555],[8.9359695,35.65412861111111],[8.884339694444444,35.640360666666666],[8.843035833333333,35.62315072222222],[8.801732000000001,35.62315072222222],[8.760428138888889,35.62315072222222],[8.729450277777778,35.63691869444445],[8.681262444444444,35.62659272222222],[8.63651661111111,35.602498805555555],[8.60209675,35.599056833333336],[8.522931027777778,35.599056833333336],[8.450649305555554,35.599056833333336],[8.43343936111111,35.592172861111116],[8.3990195,35.568078944444444],[8.378367583333334,35.54742702777778],[8.343947694444445,35.51644913888889],[8.35771563888889,35.45793536111111],[8.35771563888889,35.43039944444444],[8.371483611111112,35.406305555555555],[8.412787444444445,35.371885666666664],[8.474743222222223,35.34779175],[8.522931027777778,35.33746580555556],[8.591770777777779,35.327139833333334],[8.63651661111111,35.27895202777778],[8.6674945,35.23420619444445],[8.69847238888889,35.17913438888888],[8.763870138888889,35.14471452777778],[8.86368775,35.08275875],[8.925643527777778,35.02768697222222],[9.022019166666668,34.93819530555555],[9.066765,34.86247158333334],[9.102076027777777,34.80372544444444],[9.24230636111111,34.79363183333333],[9.340402972222222,34.814283749999994],[9.532340277777779,34.91007797222222],[9.665670777777779,35.00531405555556],[9.665670777777779,35.098247694444446],[9.717300583333333,35.18601836111111],[9.820560194444445,35.28927797222222],[9.79707111111111,35.453353166666666],[9.769770194444446,35.572794638888894],[9.737952499999999,35.68166452777778],[9.779256333333334,35.774598166666664],[9.861864027777777,35.88302077777778],[10.029969055555556,36.00601475],[10.166479888888889,36.099865944444446],[10.200164027777777,36.12577683333333]]]}
    },
    {
      "type": "Feature",
      "properties": { "param": "P0", "value": 30, "name": "P0 = 30 mm", "fill": "#FFD54F", "clipped": true, "p0": 30 },
      "geometry": {"type":"Polygon","coordinates":[[[8.50284625,35.341769694444444],[8.43267447222222,35.2422375],[8.430619766470201,35.24038163514834],[8.421377,35.222088],[8.360915,35.145916],[8.348831532150303,35.13495617109074],[8.337828611111112,35.092319833333335],[8.325590444444444,35.072432777777784],[8.296192710483927,35.04981915995936],[8.291210234817328,35.02893552824368],[8.29844075,35.01164055555556],[8.397221972222221,34.94824736111111],[8.474914305555556,34.89575255555555],[8.547093111111112,34.84907305555556],[8.617585694444445,34.803957805555555],[8.705987166666667,34.78676861111111],[8.796435944444445,34.76918136111111],[8.92679086111111,34.76781691666667],[8.991428555555554,34.77274413888889],[9.081648777777778,34.798005805555555],[9.102905861111111,34.803957805555555],[9.066765,34.86247158333334],[9.023123166666668,34.936327],[8.94995013888889,35.00511652777778],[8.88298663888889,35.06560419444444],[8.856481083333334,35.087231861111114],[8.73625461111111,35.159249027777776],[8.69847238888889,35.17913438888888],[8.65627361111111,35.25041411111111],[8.63651661111111,35.27895202777778],[8.598744861111111,35.31962927777778],[8.584776472222222,35.328189],[8.534731611111111,35.335695722222226],[8.511204027777778,35.33997872222223],[8.50284625,35.341769694444444]]]}
    },
    {
      "type": "Feature",
      "properties": { "param": "P0", "value": 40, "name": "P0 = 40 mm", "fill": "#FF8A65", "clipped": true, "p0": 40 },
      "geometry": {"type":"Polygon","coordinates":[[[11.014619398472835,35.591039638252575],[11.0171,35.60228],[11.055021,35.614475],[11.040998,35.63773],[11.011973,35.657906],[10.971816,35.654137],[10.881521,35.68301],[10.841156,35.698799],[10.8296,35.71312],[10.824522,35.733391],[10.830339,35.753235],[10.84142,35.766548],[10.82309,35.780464],[10.813812,35.784981],[10.803721,35.786934],[10.74362,35.769672],[10.713064,35.779243],[10.693695,35.787788],[10.691336,35.789619],[10.622081,35.842598],[10.608572,35.855862],[10.582286,35.921822],[10.570323,35.931587],[10.556488,35.937973],[10.540538,35.952827],[10.518565,35.979965],[10.514822,35.989082],[10.509125,36.011177],[10.50473,36.020943],[10.499847,36.02729],[10.492393,36.045341],[10.488056393219635,36.05679630219473],[10.460769805555556,36.07405105555556],[10.233598638888887,36.151495777777775],[10.166479888888889,36.099865944444446],[10.001264527777778,35.98628038888889],[9.861864027777777,35.88302077777778],[9.779256333333334,35.774598166666664],[9.737952499999999,35.68166452777778],[9.763767416666667,35.599056833333336],[9.805071250000001,35.4183525],[9.820560194444445,35.28927797222222],[9.717300583333333,35.18601836111111],[9.665670777777779,35.098247694444446],[9.665670777777779,35.00531405555556],[9.521107305555557,34.902054416666665],[9.340402972222222,34.814283749999994],[9.24230636111111,34.79363183333333],[9.102905861111111,34.803957805555555],[8.973831361111111,34.76781691666667],[8.803453000000001,34.76781691666667],[8.617585694444445,34.803957805555555],[8.488511166666665,34.88656547222222],[8.297480888888888,35.01564],[8.32845875,34.88656547222222],[8.292317888888888,34.82977269444445],[8.281991944444446,34.772979916666664],[8.271665972222223,34.747165],[8.25777108370911,34.7402175594813],[8.257356,34.739742],[8.234618322814677,34.71989189392722],[8.323295777777778,34.711024138888895],[8.452370305555554,34.674883277777774],[8.60209675,34.65939433333333],[8.756986166666668,34.65939433333333],[8.886060666666665,34.68004625],[9.03578711111111,34.674883277777774],[9.17002461111111,34.66972030555555],[9.319751055555555,34.63357941666666],[9.438499611111112,34.597438555555556],[9.552085194444444,34.48901597222223],[9.619203944444445,34.39608230555555],[9.67083375,34.28249675],[9.67083375,34.20505202777778],[9.64501886111111,34.12760730555556],[9.64501886111111,34.01918472222222],[9.634692888888889,33.926251055555554],[9.634692888888889,33.848806361111116],[9.67083375,33.76619866666667],[9.722463555555557,33.64745011111111],[9.815397222222224,33.51837558333333],[10.03224238888889,33.23957463888889],[10.274902500000001,33.02789241666667],[10.419465944444443,32.888491944444446],[10.791200555555555,32.604528],[11.054512583333334,32.41349772222222],[11.555661676865126,32.51523474969313],[11.537362,32.543518],[11.47039,32.599277],[11.449926,32.637959],[11.449203,32.69302],[11.463776,32.798466],[11.45654,32.9021],[11.474421,32.969875],[11.474937,33.025841],[11.477418,33.041214],[11.506046,33.136375],[11.505112,33.181225],[11.504568,33.181343],[11.497813,33.182686],[11.442393,33.204659],[11.351898,33.258858],[11.367442,33.245266],[11.381358,33.230698],[11.392752,33.224106],[11.410655,33.218941],[11.427582,33.207016],[11.433116,33.19355],[11.416759,33.183784],[11.372244,33.183784],[11.287852,33.21011],[11.245372,33.217922],[11.201508,33.211166],[11.179535,33.211086],[11.170177,33.221016],[11.163341,33.242622],[11.147716,33.256905],[11.131521,33.268051],[11.121837,33.280014],[11.133636,33.311428],[11.181895,33.306789],[11.28004,33.280014],[11.284434,33.28083],[11.287364,33.282051],[11.293712,33.286812],[11.269053,33.294258],[11.217784,33.316311],[11.193858,33.320992],[11.170665,33.331772],[11.150889,33.353951],[11.131114,33.371529],[11.102074,33.364082],[11.110784,33.392971],[11.08993,33.454147],[11.116621,33.489971],[11.111583,33.540024],[11.108165,33.549629],[11.073578,33.594467],[11.060313,33.608345],[11.042816,33.617867],[11.000662,33.634182],[10.98463,33.643135],[10.977875,33.643135],[10.971446,33.631905],[10.960623,33.62767],[10.947927,33.629463],[10.936209,33.636299],[10.906505,33.61644],[10.90919,33.607857],[10.92628,33.591255],[10.932791,33.574043],[10.92514,33.55508],[10.909434,33.539619],[10.892263,33.533272],[10.856212,33.524319],[10.780528,33.485744],[10.738129,33.478012],[10.717133,33.483547],[10.703624,33.49604],[10.679942,33.529854],[10.674083,33.545601],[10.679047,33.562569],[10.691417,33.576118],[10.70753,33.581692],[10.736923,33.602852],[10.739992,33.671577],[10.716644,33.706936],[10.697618,33.702599],[10.634071,33.673626],[10.558373,33.65572],[10.489268,33.647121],[10.460216,33.652695],[10.446055,33.655422],[10.367686,33.684067],[10.330252,33.702827],[10.186859,33.821762],[10.172699,33.828072],[10.163096,33.83625],[10.0713,33.946236],[10.048839,33.983467],[10.039317,34.016098],[10.036143,34.034492],[10.021495,34.073311],[10.01824,34.091537],[10.018402,34.133492],[10.014659,34.153389],[10.005218,34.170639],[10.010101,34.17308],[10.010264,34.173164],[10.018809,34.180569],[10.032777,34.184654],[10.054034,34.213161],[10.089778,34.272976],[10.102161,34.304073],[10.126719,34.32563],[10.166677,34.338814],[10.186778,34.351955],[10.234222,34.369331],[10.247244,34.372139],[10.256602,34.379097],[10.278006,34.402737],[10.281993,34.408882],[10.288096,34.414009],[10.300059,34.417709],[10.31129,34.416817],[10.320486,34.413235],[10.330414,34.412582],[10.365398057182837,34.42018436461747],[10.34202125,34.43738616666666],[10.30071738888889,34.51999386111111],[10.233598638888887,34.59227558333333],[10.187866611111112,34.680221833333334],[10.166479888888889,34.721350111111114],[10.206174333333333,34.89776986111111],[10.290573,35.12690713888889],[10.414653805555556,35.23419747222222],[10.493459944444444,35.29409013888889],[10.60533325,35.39770058333333],[10.724081833333333,35.469982305555554],[10.823431,35.511377805555554],[11.014619398472835,35.591039638252575]]]}
    },
    {
      "type": "Feature",
      "properties": { "param": "P0", "value": 50, "name": "P0 = 50 mm", "fill": "#E57373", "clipped": true, "p0": 50 },
      "geometry": {"type":"Polygon","coordinates":[[[8.233495801393792,34.71891192710422],[8.225213,34.711681],[8.213431,34.696747],[8.210641,34.68119],[8.236479,34.647655],[8.22883,34.63644],[8.192863,34.617733],[8.18656,34.60957],[8.179531,34.592152],[8.175191,34.585281],[8.167232,34.578564],[8.143668,34.566727],[8.102483,34.536354],[8.094058,34.53014],[7.999077,34.494175],[7.957323,34.469421],[7.87061,34.437901],[7.831542,34.414387],[7.811905,34.379272],[7.774285,34.26096],[7.765293,34.244705],[7.752787,34.232151],[7.733874,34.223778],[7.670312,34.215302],[7.631451,34.199101],[7.604063,34.175488],[7.579568,34.14846],[7.539228,34.113758],[7.517453,34.095024],[7.503707,34.067974],[7.500607,33.994255],[7.479832,33.893902],[7.484897,33.855015],[7.498539,33.79998],[7.505464,33.782848],[7.534196,33.736237],[7.544428,33.68425],[7.553006,33.658749],[7.616568,33.565964],[7.693153,33.454109],[7.708242,33.41486],[7.708286,33.410706],[7.709689,33.278152],[7.724986,33.231411],[7.75072,33.207664],[7.787514,33.198311],[7.83547,33.194538],[7.871953,33.184124],[7.982748,33.116817],[8.002178,33.108368],[8.022641,33.103046],[8.043622,33.10183],[8.0645,33.105785],[8.086823,33.094288],[8.181392,32.969822],[8.244259463789279,32.887157662113935],[11.054512583333334,32.41349772222222],[10.666371611111112,32.69988344444444],[10.473764583333333,32.847013833333335],[10.225638083333333,33.070867750000005],[10.085573111111112,33.19305211111111],[9.925333388888887,33.37702905555555],[9.815397222222224,33.51837558333333],[9.743993194444444,33.61754783333333],[9.692159972222223,33.717148361111114],[9.647169944444444,33.82028738888889],[9.634692888888889,33.89489075],[9.642381388888888,33.99544761111111],[9.64501886111111,34.12760730555556],[9.660278333333334,34.173385749999994],[9.67083375,34.22187952777778],[9.67083375,34.28249675],[9.648325944444444,34.33201394444445],[9.598752166666667,34.424400166666665],[9.438499611111112,34.597438555555556],[9.33449,34.62909366666667],[9.261274888888888,34.647694361111114],[9.175252277777776,34.66845844444444],[9.050981472222222,34.674298888888885],[8.944320555555556,34.678037305555556],[8.846488861111112,34.673714777777775],[8.719697972222223,34.65939433333333],[8.579921555555556,34.66168830555556],[8.408061666666667,34.68728969444444],[8.233495801393792,34.71891192710422]]]}
    },
    {
      "type": "Feature",
      "properties": { "param": "P10", "value": 40, "name": "P10 = 40 mm", "fill": "#B3E5FC", "clipped": true, "p10": 40 },
      "geometry": {"type":"Polygon","coordinates":[[[7.485216057972001,33.91990952681898],[7.479832,33.893902],[7.484897,33.855015],[7.498539,33.79998],[7.505464,33.782848],[7.534196,33.736237],[7.544428,33.68425],[7.553006,33.658749],[7.616568,33.565964],[7.693153,33.454109],[7.708242,33.41486],[7.708286,33.410706],[7.709689,33.278152],[7.724986,33.231411],[7.75072,33.207664],[7.787514,33.198311],[7.83547,33.194538],[7.871953,33.184124],[7.982748,33.116817],[8.002178,33.108368],[8.022641,33.103046],[8.043622,33.10183],[8.0645,33.105785],[8.086823,33.094288],[8.181392,32.969822],[8.282885,32.836369],[8.290069501159149,32.81940597776252],[11.22202263888889,32.32190261111111],[11.401005972222222,32.55251575],[11.077459166666667,32.607587555555554],[10.526741222222222,32.77968691666666],[10.35808386111111,32.831316722222226],[10.044863027777778,32.965554222222224],[9.783272,33.161747472222224],[9.552658861111112,33.364824722222224],[9.308277777777779,33.554134],[9.07422263888889,33.77786316666666],[8.933101166666667,33.90521669444444],[8.819515583333333,34.08420002777778],[8.692162083333333,34.07043208333334],[8.561366555555557,34.091084],[8.454664944444444,34.08764202777778],[8.37549925,34.08764202777778],[8.261913666666667,34.06354811111111],[8.206841888888889,34.042896194444445],[8.117350222222223,33.994708361111115],[8.0416265,33.929310611111106],[7.934924888888889,33.90865869444444],[7.8351072777777775,33.90865869444444],[7.6905438055555555,33.90865869444444],[7.485216057972001,33.91990952681898]]]}
    },
    {
      "type": "Feature",
      "properties": { "param": "P10", "value": 50, "name": "P10 = 50 mm", "fill": "#81D4FA", "clipped": true, "p10": 50 },
      "geometry": {"type":"Polygon","coordinates":[[[8.165876495263788,34.57788308379042],[8.143668,34.566727],[8.102483,34.536354],[8.094058,34.53014],[7.999077,34.494175],[7.957323,34.469421],[7.87061,34.437901],[7.831542,34.414387],[7.811905,34.379272],[7.774285,34.26096],[7.765293,34.244705],[7.752787,34.232151],[7.733874,34.223778],[7.670312,34.215302],[7.631451,34.199101],[7.604063,34.175488],[7.579568,34.14846],[7.539228,34.113758],[7.517453,34.095024],[7.503707,34.067974],[7.500607,33.994255],[7.484312033980051,33.91554266666667],[7.535654388888889,33.91554266666667],[7.6354720277777774,33.90865869444444],[7.783477472222222,33.90177472222222],[7.900505027777778,33.90177472222222],[7.97622875,33.922426638888886],[8.058836444444445,33.97749844444445],[8.182747972222222,34.02224427777778],[8.282565611111112,34.07387408333334],[8.37894125,34.08764202777778],[8.499410777777777,34.08764202777778],[8.461548944444443,34.16336575],[8.420245083333333,34.19434361111111],[8.368615277777778,34.2253215],[8.313543472222223,34.25629938888889],[8.217167833333333,34.30792919444444],[8.189631944444445,34.37676894444444],[8.182747972222222,34.480028555555556],[8.165876495263788,34.57788308379042]]]}
    },
    {
      "type": "Feature",
      "properties": { "param": "P10", "value": 60, "name": "P10 = 60 mm", "fill": "#4FC3F7", "clipped": true, "p10": 60 },
      "geometry": {"type":"Polygon","coordinates":[[[8.833283555555555,34.080758055555556],[8.981289,33.850144916666665],[9.070780666666666,33.77442119444444],[9.180924249999999,33.65739363888889],[9.3771175,33.49562022222222],[9.587078722222223,33.30631094444444],[9.75573611111111,33.17207344444444],[9.94504538888889,33.051603888888884],[10.113702777777778,32.92080838888889],[10.275476166666667,32.85196863888889],[10.588697,32.765918944444444],[10.967315583333333,32.652333388888884],[11.373470055555556,32.54563177777778],[11.48797266861607,32.584638165571235],[11.47039,32.599277],[11.449926,32.637959],[11.449203,32.69302],[11.459992260734076,32.7710879604313],[11.2598845,32.876062555555556],[11.170392833333333,32.94834427777777],[11.129088972222222,33.003416055555554],[11.025829361111112,33.12388561111111],[10.936337694444445,33.19616736111111],[10.82619411111111,33.30975291666666],[10.753912388888889,33.33384683333333],[10.664420722222223,33.357940750000004],[10.51641525,33.38547663888889],[10.468227444444445,33.38547663888889],[10.368409805555556,33.39236061111111],[10.244498277777778,33.41989652777777],[10.130912694444445,33.46120036111111],[10.017327111111111,33.53348208333333],[9.965697305555555,33.57822791666667],[9.94504538888889,33.647067666666665],[9.927835472222222,33.70902344444445],[9.903741555555555,33.79851511111111],[9.893415583333333,33.85702888888889],[9.865879694444445,33.91210066666667],[9.834901805555557,33.97749844444445],[9.81080788888889,34.03257022222222],[9.762620083333333,34.03601222222222],[9.710990277777777,34.042896194444445],[9.690338333333333,34.056664138888884],[9.659360472222222,34.07387408333334],[9.624940583333334,34.09796797222222],[9.611172638888888,34.125503888888886],[9.518239000000001,34.12894586111111],[9.359907583333333,34.10140997222222],[9.297951805555556,34.10485194444445],[9.208460138888888,34.10829394444445],[9.063896694444445,34.10140997222222],[8.833283555555555,34.080758055555556]]]}
    },
    {
      "type": "Feature",
      "properties": { "param": "P10", "value": 75, "name": "P10 = 75 mm", "fill": "#29B6F6", "clipped": true, "p10": 75 },
      "geometry": {"type":"Polygon","coordinates":[[[9.211902138888888,35.97729297222222],[9.328929694444444,35.90501125],[9.308277777777779,35.880917333333336],[9.277299888888889,35.843055472222225],[9.205018166666665,35.815519583333334],[9.163714305555557,35.80175163888889],[9.084548611111112,35.832729500000006],[9.032918805555557,35.85682341666667],[8.960637055555555,35.86026541666667],[8.94342713888889,35.82928752777778],[8.867703416666668,35.832729500000006],[8.836725527777778,35.80863561111111],[8.798863666666666,35.80863561111111],[8.764443805555555,35.80863561111111],[8.80574763888889,35.75012180555556],[8.836725527777778,35.701934],[8.87114538888889,35.64342022222222],[8.878029388888889,35.567696500000004],[8.833283555555555,35.55048655555555],[8.761001805555555,35.50574072222222],[8.719697972222223,35.51950866666667],[8.654300222222222,35.51950866666667],[8.554482583333334,35.488530805555556],[8.451222972222222,35.653746166666664],[8.318964453681149,35.661093874494895],[8.323606,35.652191],[8.327226,35.621407],[8.337041,35.537937],[8.336731,35.508377],[8.300867,35.437477],[8.290015,35.402596],[8.287949,35.366058],[8.294356,35.325081],[8.317404,35.289474],[8.355231,35.274334],[8.396882,35.263687],[8.431299,35.241726],[8.421377,35.222088],[8.360915,35.145916],[8.313684,35.103077],[8.300454,35.06768],[8.282885,34.994041],[8.259009,34.940659],[8.248881,34.901955],[8.250741,34.864746],[8.269345,34.763874],[8.266555,34.750282],[8.258715,34.741299],[8.257356,34.739742],[8.225213,34.711681],[8.213431,34.696747],[8.210641,34.68119],[8.236479,34.647655],[8.22883,34.63644],[8.192863,34.617733],[8.18656,34.60957],[8.179531,34.592152],[8.175191,34.585281],[8.168893994657749,34.5799666407986],[8.168980027777778,34.57984619444445],[8.175863999999999,34.53165836111111],[8.179305972222222,34.43872472222222],[8.217167833333333,34.31481316666667],[8.330753416666667,34.25629938888889],[8.430571055555555,34.21155355555556],[8.502852777777777,34.08764202777778],[8.64397425,34.06699011111112],[8.812631611111112,34.07043208333334],[8.816073611111111,34.12206188888889],[8.826399555555556,34.18057566666666],[8.919333222222221,34.25629938888889],[9.008824888888888,34.31137119444444],[9.1155265,34.34579105555556],[9.170598277777778,34.449050666666665],[9.170598277777778,34.600498111111115],[9.07422263888889,34.74850355555556],[8.981289,34.85864713888889],[8.843609500000001,34.94813880555555],[8.90900725,35.01697855555555],[9.008824888888888,35.130564138888886],[9.153388361111112,35.27856958333333],[9.249763999999999,35.39903913888889],[9.356465583333334,35.52295066666667],[9.48726111111111,35.66063013888889],[9.590520722222223,35.726027916666666],[9.459725194444443,35.85682341666667],[9.211902138888888,35.97729297222222]]]}
    },
    {
      "type": "Feature",
      "properties": { "param": "P10", "value": 80, "name": "P10 = 80 mm", "fill": "#039BE5", "clipped": true, "p10": 80 },
      "geometry": {"type":"Polygon","coordinates":[[[11.028967598644599,34.60441389166295],[11.03978268385052,34.61255806241576],[11.071181352458984,34.64704800058389],[11.09562697933846,34.68677007947831],[11.105139862115276,34.711676878342416],[11.119802757624226,34.72830720868067],[11.145131276982406,34.7728092872666],[11.16086149076083,34.82153842912063],[11.161018572405588,34.82299992928475],[11.163800150150518,34.825334323075566],[11.197540150150518,34.86011232307557],[11.229791082532769,34.90118939913334],[11.233857026211277,34.909472315151554],[11.057028555555556,34.82442055555556],[11.007290333333334,34.76867836111111],[10.989619,34.69716808333333],[10.9914095,34.645243944444445],[11.028967598644599,34.60441389166295]]]}
    },
    {
      "type": "Feature",
      "properties": { "param": "P10", "value": 80, "name": "P10 = 80 mm", "fill": "#039BE5", "clipped": true, "p10": 80 },
      "geometry": {"type":"Polygon","coordinates":[[[10.599022944444444,35.75700580555556],[10.457901472222222,35.73291188888889],[10.451017499999999,35.80519361111111],[10.41315563888889,35.891243277777775],[10.38906175,35.96008302777778],[10.344315916666668,35.97385097222222],[10.14812263888889,35.935989111111105],[10.024211111111113,35.91189522222222],[9.907183527777779,35.884359305555556],[9.858995722222222,35.86026541666667],[9.6455925,35.76044777777778],[9.525122972222222,35.691608027777775],[9.404653416666667,35.57113847222222],[9.27385788888889,35.430017],[9.094874555555556,35.23038175],[8.840167527777778,34.95158080555556],[8.967521055555556,34.85864713888889],[9.022592833333334,34.81734330555556],[9.118968472222223,34.71408369444445],[9.14994636111111,34.648685916666665],[9.163714305555557,34.607382083333334],[9.191250194444445,34.57640419444445],[9.194692194444444,34.524774388888886],[9.174040277777777,34.44216669444444],[9.146504361111111,34.40086286111111],[9.057012722222224,34.33202311111111],[8.984730972222222,34.294161249999995],[8.933101166666667,34.27006733333333],[8.902123277777779,34.249415416666665],[8.850493472222222,34.21499555555556],[8.819515583333333,34.16680772222222],[8.822957583333332,34.08764202777778],[8.850493472222222,34.08764202777778],[8.95031111111111,34.08764202777778],[9.036360777777778,34.094526],[9.136178416666667,34.11517791666667],[9.229112055555555,34.10829394444445],[9.335813666666667,34.11517791666667],[9.425305333333332,34.11861991666667],[9.566426805555556,34.12894586111111],[9.611172638888888,34.08764202777778],[9.6455925,34.077316055555556],[9.673128416666666,34.06699011111112],[9.704106305555555,34.046338166666665],[9.735084166666665,34.042896194444445],[9.807365916666667,34.03257022222222],[9.821133861111111,34.005034333333334],[9.855553722222222,33.93963658333333],[9.896857583333333,33.86391286111111],[9.9140675,33.80539908333333],[9.924393472222222,33.71590741666667],[9.938161416666667,33.61608977777778],[9.976023277777777,33.567901972222224],[10.079282888888889,33.485294277777776],[10.137796666666667,33.46120036111111],[10.237614305555555,33.43366447222222],[10.333989944444445,33.413012527777774],[10.447575527777778,33.399244583333335],[10.557719111111112,33.39236061111111],[10.733260444444445,33.354498750000005],[10.822752111111111,33.29942697222222],[10.939779694444445,33.19616736111111],[11.032713333333334,33.11355966666667],[11.125647,33.01718402777777],[11.160066861111112,32.958670222222224],[11.204812694444444,32.924250361111106],[11.345934166666668,32.81410677777777],[11.459446128768858,32.76713630797784],[11.463776,32.798466],[11.45654,32.9021],[11.474421,32.969875],[11.474937,33.025841],[11.477418,33.041214],[11.506046,33.136375],[11.50587142653468,33.14475789070614],[11.421657888888888,33.1548635],[11.270210444444444,33.19960933333333],[11.227141591673401,33.2151141247799],[11.201508,33.211166],[11.179535,33.211086],[11.170177,33.221016],[11.163341,33.242622],[11.154274117079488,33.25091014648024],[11.098111083333334,33.289100999999995],[11.01894538888889,33.37859266666667],[10.9879675,33.49217825],[11.001735444444444,33.55069202777778],[11.025829361111112,33.62297375],[11.026887478643005,33.62403186753189],[11.000662,33.634182],[10.98463,33.643135],[10.977875,33.643135],[10.971446,33.631905],[10.960623,33.62767],[10.947927,33.629463],[10.936209,33.636299],[10.906505,33.61644],[10.90919,33.607857],[10.92628,33.591255],[10.932791,33.574043],[10.92514,33.55508],[10.909434,33.539619],[10.892263,33.533272],[10.856212,33.524319],[10.780528,33.485744],[10.738129,33.478012],[10.717133,33.483547],[10.703624,33.49604],[10.679942,33.529854],[10.674083,33.545601],[10.679047,33.562569],[10.691417,33.576118],[10.70753,33.581692],[10.736923,33.602852],[10.739992,33.671577],[10.716644,33.706936],[10.697618,33.702599],[10.634071,33.673626],[10.558373,33.65572],[10.489268,33.647121],[10.460216,33.652695],[10.446055,33.655422],[10.367686,33.684067],[10.330252,33.702827],[10.186859,33.821762],[10.172699,33.828072],[10.163096,33.83625],[10.0713,33.946236],[10.048839,33.983467],[10.039317,34.016098],[10.036143,34.034492],[10.021495,34.073311],[10.01824,34.091537],[10.018402,34.133492],[10.014659,34.153389],[10.005218,34.170639],[10.010101,34.17308],[10.010264,34.173164],[10.018809,34.180569],[10.032777,34.184654],[10.054034,34.213161],[10.089778,34.272976],[10.099800757106484,34.298145803580745],[10.089608861111111,34.30104522222222],[9.98634925,34.43184075],[9.98634925,34.47658658333334],[9.993233222222221,34.54542630555555],[10.017327111111111,34.603940083333335],[10.065514944444445,34.66589586111111],[10.158448611111112,34.7622715],[10.296128083333333,34.82766925000001],[10.38906175,34.87585708333334],[10.523299222222223,34.934370861111105],[10.630000833333334,34.965348750000004],[10.695398583333333,35.0307465],[10.757354361111112,35.10302822222222],[10.774564305555556,35.23382375],[10.747028388888888,35.364619250000004],[10.681630638888889,35.533276638888886],[10.599022944444444,35.75700580555556]]]}
    },
    {
      "type": "Feature",
      "properties": { "param": "P10", "value": 100, "name": "P10 = 100 mm", "fill": "#0288D1", "clipped": true, "p10": 100 },
      "geometry": {"type":"Polygon","coordinates":[[[9.425305333333332,35.86714938888889],[9.58363675,35.72258591666667],[9.741968138888888,35.80519361111111],[9.869321666666668,35.86714938888889],[10.017327111111111,35.91189522222222],[10.165332583333333,35.94975708333333],[10.344315916666668,35.96352502777778],[10.38906175,35.95319905555556],[10.447575527777778,35.87747533333334],[10.464785444444443,35.78109969444444],[10.468227444444445,35.72946988888889],[10.595580972222223,35.76044777777778],[10.681630638888889,35.78798366666666],[10.691354849435122,35.78960436951433],[10.691336,35.789619],[10.622081,35.842598],[10.608572,35.855862],[10.582286,35.921822],[10.570323,35.931587],[10.556488,35.937973],[10.540538,35.952827],[10.518565,35.979965],[10.514822,35.989082],[10.513239893302256,35.99521797463344],[10.506089305555555,35.99450291666667],[10.420039611111111,36.056458666666664],[10.351199888888889,36.083994583333336],[10.272034166666668,36.09776252777778],[10.199752444444444,36.1012045],[10.161890583333333,36.1012045],[10.117144750000001,36.12185641666667],[10.099934805555556,36.15627630555555],[10.089608861111111,36.22167405555556],[10.072398916666666,36.26986188888889],[10.003559166666667,36.238884],[9.965697305555555,36.214790083333334],[9.910625527777778,36.19413816666666],[9.834901805555557,36.18725419444444],[9.77294602777778,36.17692822222222],[9.731642194444445,36.15283430555555],[9.676570388888889,36.128740416666666],[9.621498611111111,36.09776252777778],[9.569868805555556,36.06678463888889],[9.569868805555556,36.00138688888889],[9.573310777777778,35.95664105555556],[9.54921686111111,35.92222116666667],[9.518239000000001,35.90501125],[9.425305333333332,35.86714938888889]]]}
    },
    {
      "type": "Feature",
      "properties": { "param": "P10", "value": 110, "name": "P10 = 110 mm", "fill": "#01579B", "clipped": true, "p10": 110 },
      "geometry": {"type":"Polygon","coordinates":[[[10.097099875802371,34.29136317369186],[10.102161,34.304073],[10.126719,34.32563],[10.166677,34.338814],[10.186778,34.351955],[10.234222,34.369331],[10.247244,34.372139],[10.256602,34.379097],[10.278006,34.402737],[10.281993,34.408882],[10.288096,34.414009],[10.300059,34.417709],[10.31129,34.416817],[10.320486,34.413235],[10.330414,34.412582],[10.378723,34.42308],[10.431895,34.496323],[10.465994,34.511948],[10.559377,34.523491],[10.581615,34.53268],[10.597023,34.544712],[10.598752,34.562454],[10.605709,34.573669],[10.607432,34.59333],[10.615001,34.603584],[10.619884,34.615871],[10.621429,34.626289],[10.625255,34.633247],[10.634288,34.637886],[10.701182,34.655952],[10.717296,34.664742],[10.734711,34.680855],[10.743988,34.698677],[10.763469,34.713448],[10.779042,34.739502],[10.811262,34.768879],[10.834885,34.783398],[10.871421,34.797367],[10.867357,34.811031],[10.856293,34.830879],[10.860362,34.836819],[10.86671,34.841255],[10.875499,34.849068],[10.916336,34.87357],[10.916514,34.913315],[10.924952,34.93412],[10.917654,34.957424],[10.945863,34.983532],[10.984366,34.999413],[11.018106,35.034191],[11.022452,35.064503],[11.01588,35.092842],[11.03499,35.107056],[11.04883,35.131222],[11.062912,35.153641],[11.092316,35.173939],[11.111578,35.205593],[11.131352,35.21796],[11.15916,35.218758],[11.160782,35.238232],[11.147104,35.244007],[11.122081,35.253647],[11.101329,35.26683],[11.06589,35.303268],[11.042232,35.334435],[11.037188,35.370823],[11.049412,35.391254],[11.04553,35.434753],[11.050666,35.459782],[11.05769,35.486732],[11.085057,35.506786],[11.039236,35.518501],[11.023936,35.53376],[11.014903,35.555161],[11.013927,35.562893],[11.011973,35.579048],[11.0171,35.60228],[11.055021,35.614475],[11.040998,35.63773],[11.011973,35.657906],[10.971816,35.654137],[10.881521,35.68301],[10.841156,35.698799],[10.8296,35.71312],[10.824522,35.733391],[10.830339,35.753235],[10.84142,35.766548],[10.82309,35.780464],[10.813812,35.784981],[10.803721,35.786934],[10.74362,35.769672],[10.713064,35.779243],[10.693695,35.787788],[10.69140370050137,35.78956645247223],[10.602464944444444,35.76733175],[10.612790888888888,35.70881797222223],[10.65409475,35.62276830555555],[10.685072638888888,35.54016061111111],[10.7194925,35.45755291666667],[10.740144416666666,35.38527116666667],[10.774564305555556,35.302663499999994],[10.778006277777779,35.206287861111115],[10.764238333333333,35.10647022222222],[10.729818472222222,35.058282388888884],[10.678188666666665,34.99288463888889],[10.62311686111111,34.961906750000004],[10.485437388888888,34.92060291666667],[10.31678,34.82766925000001],[10.189426472222223,34.75194555555556],[10.089608861111111,34.679663805555556],[10.000117194444444,34.56952022222222],[9.965697305555555,34.483470555555556],[10.013885138888888,34.38365291666667],[10.062072944444445,34.32513913888889],[10.097099875802371,34.29136317369186]]]}
    },
    {
      "type": "Feature",
      "properties": { "param": "P10", "value": 110, "name": "P10 = 110 mm", "fill": "#01579B", "clipped": true, "p10": 110 },
      "geometry": {"type":"MultiPolygon","coordinates":[[[[11.50587061183605,33.14479701194127],[11.505112,33.181225],[11.504568,33.181343],[11.497813,33.182686],[11.442393,33.204659],[11.351898,33.258858],[11.367442,33.245266],[11.381358,33.230698],[11.392752,33.224106],[11.410655,33.218941],[11.427582,33.207016],[11.433116,33.19355],[11.416759,33.183784],[11.372244,33.183784],[11.287852,33.21011],[11.245372,33.217922],[11.228108268901574,33.215263013876964],[11.288484861111112,33.19421008333333],[11.393167055555555,33.16328125],[11.50587061183605,33.14479701194127]]],[[[11.125461516351987,33.27553650215626],[11.121837,33.280014],[11.133636,33.311428],[11.181895,33.306789],[11.28004,33.280014],[11.284434,33.28083],[11.287364,33.282051],[11.293712,33.286812],[11.269053,33.294258],[11.217784,33.316311],[11.193858,33.320992],[11.170665,33.331772],[11.150889,33.353951],[11.131114,33.371529],[11.102074,33.364082],[11.110784,33.392971],[11.08993,33.454147],[11.116621,33.489971],[11.111583,33.540024],[11.108165,33.549629],[11.073578,33.594467],[11.060313,33.608345],[11.042816,33.617867],[11.037533193804334,33.619911621698584],[11.015159194444445,33.59096327777778],[10.9879675,33.49217825],[11.002185555555556,33.44004538888888],[11.077876194444444,33.311975222222216],[11.125461516351987,33.27553650215626]]]]}
    },
    {
      "type": "Feature",
      "properties": { "param": "P100", "value": 70, "name": "P100 = 70 mm", "fill": "#E1BEE7", "clipped": true, "p100": 70 },
      "geometry": {"type":"Polygon","coordinates":[[[7.485841545708405,33.922930926136004],[7.479832,33.893902],[7.484897,33.855015],[7.498539,33.79998],[7.505464,33.782848],[7.534196,33.736237],[7.544428,33.68425],[7.553006,33.658749],[7.616568,33.565964],[7.693153,33.454109],[7.708242,33.41486],[7.708286,33.410706],[7.709689,33.278152],[7.724986,33.231411],[7.75072,33.207664],[7.787514,33.198311],[7.83547,33.194538],[7.871953,33.184124],[7.982748,33.116817],[8.002178,33.108368],[8.022641,33.103046],[8.043622,33.10183],[8.0645,33.105785],[8.086823,33.094288],[8.181392,32.969822],[8.282885,32.836369],[8.296423,32.804405],[8.309962,32.663872],[8.319574,32.560596],[8.331253,32.52763],[8.332627,32.526356],[8.359985,32.501015],[8.482665,32.434792],[8.642345,32.336658],[8.851532,32.208241],[8.970176711048646,32.13538981277546],[10.885911854361991,32.14185098354596],[11.182342,32.262222],[11.414007104148945,32.35629807623402],[11.370028083333334,32.56972569444445],[11.18932375,32.59554058333334],[11.024108361111113,32.631681444444446],[10.678188666666665,32.755593],[10.476832416666667,32.86917858333334],[10.337431916666667,32.99825308333333],[10.15156461111111,33.1583055],[10.032816055555557,33.20477230555556],[9.846948750000001,33.30286894444444],[9.635266555555555,33.44226944444444],[9.516518,33.555854999999994],[9.34097663888889,33.76237425],[9.14994636111111,33.94307855555555],[8.989893972222221,34.02568625],[8.767885777777778,34.103130972222225],[8.582018472222222,34.08764202777778],[8.365173277777778,34.077316055555556],[8.282565611111112,34.056664138888884],[7.993438666666667,33.922426638888886],[7.8850160833333325,33.896611722222225],[7.485841545708405,33.922930926136004]]]}
    },
    {
      "type": "Feature",
      "properties": { "param": "P100", "value": 90, "name": "P100 = 90 mm", "fill": "#CE93D8", "clipped": true, "p100": 90 },
      "geometry": {"type":"Polygon","coordinates":[[[8.305679061185435,35.68607021591308],[8.306552,35.684902],[8.323606,35.652191],[8.327226,35.621407],[8.337041,35.537937],[8.336731,35.508377],[8.300867,35.437477],[8.290015,35.402596],[8.287949,35.366058],[8.294356,35.325081],[8.317404,35.289474],[8.355231,35.274334],[8.396882,35.263687],[8.431299,35.241726],[8.421377,35.222088],[8.419064907017646,35.2191751498354],[8.444339,35.22206361111111],[8.524652027777778,35.26566213888889],[8.588902444444445,35.31384994444444],[8.641679583333334,35.36892175],[8.694456722222222,35.45382408333334],[8.715108638888887,35.5249585],[8.747233861111111,35.616744805555555],[8.65315288888889,35.67870058333333],[8.4007405,35.71082580555556],[8.305679061185435,35.68607021591308]]]}
    },
    {
      "type": "Feature",
      "properties": { "param": "P100", "value": 120, "name": "P100 = 120 mm", "fill": "#BA68C8", "clipped": true, "p100": 120 },
      "geometry": {"type":"Polygon","coordinates":[[[8.420080254103715,35.22045431721723],[8.360915,35.145916],[8.313684,35.103077],[8.300454,35.06768],[8.282885,34.994041],[8.26596623075037,34.95621398793417],[8.3066595,34.953588611111115],[8.522357361111112,34.96506191666667],[8.657742194444445,34.99030316666667],[8.747233861111111,35.01324972222222],[8.917038555555555,35.07061619444445],[9.027182166666668,35.157813194444444],[9.061602027777779,35.201411694444445],[9.091432583333335,35.24959952777778],[9.107495194444445,35.35285913888889],[9.109789833333332,35.47218136111111],[9.132736416666667,35.55478905555555],[9.178629583333333,35.62821811111111],[9.203870833333333,35.658048666666666],[9.265826583333334,35.70164716666667],[9.151093694444445,35.80031747222222],[9.086843250000001,35.83473733333334],[9.045539416666667,35.87145186111111],[8.99046761111111,35.8806305],[8.949163777777779,35.87145186111111],[8.949163777777779,35.84850527777778],[8.917038555555555,35.84621063888889],[8.889502666666667,35.86456788888889],[8.875734722222223,35.84850527777778],[8.852788138888888,35.82096938888889],[8.813778944444445,35.804906777777774],[8.813778944444445,35.76360294444444],[8.848198833333335,35.70394183333334],[8.914743916666668,35.591503583333335],[8.896386638888888,35.55937836111111],[8.82754688888889,35.53872644444444],[8.777064416666667,35.52266383333333],[8.719697972222223,35.52036916666667],[8.673804805555555,35.45841341666667],[8.570545194444444,35.30926063888889],[8.522357361111112,35.24959952777778],[8.446633666666667,35.22206361111111],[8.420080254103715,35.22045431721723]]]}
    },
    {
      "type": "Feature",
      "properties": { "param": "P100", "value": 150, "name": "P100 = 150 mm", "fill": "#AB47BC", "clipped": true, "p100": 150 },
      "geometry": {"type":"Polygon","coordinates":[[[7.796240496952349,34.33000834543929],[7.774285,34.26096],[7.765293,34.244705],[7.752787,34.232151],[7.733874,34.223778],[7.670312,34.215302],[7.631451,34.199101],[7.604063,34.175488],[7.579568,34.14846],[7.539228,34.113758],[7.517453,34.095024],[7.503707,34.067974],[7.500607,33.994255],[7.483517106543049,33.91170279407531],[7.542538361111111,33.90492986111111],[7.684807166666667,33.89345658333333],[7.824781305555556,33.90263522222222],[7.939514222222223,33.90263522222222],[8.017532583333335,33.93705508333333],[8.127676166666667,34.012778805555556],[8.240114416666666,34.04719866666667],[8.364025972222223,34.06555594444444],[8.458106944444443,34.07473458333334],[8.549893277777779,34.07473458333334],[8.671510138888888,34.07473458333334],[8.735760583333333,34.09309183333333],[8.767885777777778,34.13439569444444],[8.806894972222223,34.212414055555556],[8.836725527777778,34.26748586111111],[8.86885075,34.32485230555556],[8.887208,34.37533477777778],[8.887208,34.418933277777775],[8.859672111111111,34.444174527777776],[8.822957583333332,34.44876383333333],[8.735760583333333,34.45564780555556],[8.6692155,34.44646919444444],[8.595786416666668,34.434995888888885],[8.529241333333335,34.41434397222222],[8.409919111111112,34.368450805555554],[8.31583813888889,34.33173627777778],[8.182747972222222,34.30649502777778],[8.09096163888889,34.30878969444444],[8.003764638888889,34.30878969444444],[7.921156944444445,34.31567366666666],[7.796240496952349,34.33000834543929]]]}
    },
    {
      "type": "Feature",
      "properties": { "param": "P100", "value": 160, "name": "P100 = 160 mm", "fill": "#9C27B0", "clipped": true, "p100": 160 },
      "geometry": {"type":"Polygon","coordinates":[[[9.26812125,35.697057861111105],[9.35531825,35.74754033333333],[9.424158,35.77737088888889],[9.522828305555556,35.81867472222223],[9.591668055555557,35.85997858333334],[9.671981083333332,35.91963969444444],[9.76147275,35.981595444444444],[9.818839194444445,36.03666725],[9.88308963888889,36.11239097222222],[9.933572111111111,36.15140016666667],[10.000117194444444,36.24548113888889],[9.981759916666666,36.238597166666665],[9.93586675,36.215650583333336],[9.903741555555555,36.208766611111116],[9.848669750000001,36.19499866666666],[9.811955222222222,36.19040933333333],[9.720168888888889,36.14451616666667],[9.685749027777778,36.13533755555555],[9.591668055555557,36.10780163888889],[9.56413213888889,36.07797108333334],[9.56413213888889,36.05272986111111],[9.56413213888889,36.00454202777778],[9.56413213888889,35.97700613888889],[9.557248166666668,35.94717558333333],[9.532006944444445,35.92193433333333],[9.479229805555555,35.905871749999996],[9.44939925,35.90357708333333],[9.431041972222221,35.898987749999996],[9.408095388888889,35.889809138888886],[9.38973813888889,35.86456788888889],[9.362202222222221,35.82785336111112],[9.309425111111112,35.81867472222223],[9.242880027777776,35.80949608333333],[9.137325749999999,35.80949608333333],[9.26812125,35.697057861111105]]]}
    },
    {
      "type": "Feature",
      "properties": { "param": "P100", "value": 200, "name": "P100 = 200 mm", "fill": "#8E24AA", "clipped": true, "p100": 200 },
      "geometry": {"type":"Polygon","coordinates":[[[10.463064472222221,36.04871419444444],[10.325384972222222,36.079692083333335],[10.208357416666665,36.09346002777778],[10.122307722222223,36.117553944444445],[10.084445861111112,36.18983566666666],[10.050026,36.24490747222222],[10.005280166666667,36.24490747222222],[9.926114472222222,36.162299777777775],[9.826296833333332,36.05215619444444],[9.77466702777778,36.00396836111111],[9.692059333333333,35.928244666666664],[9.606009666666667,35.86973086111111],[9.54405388888889,35.82498502777778],[9.475214138888889,35.78712316666667],[9.327208694444444,35.73893536111111],[9.21362311111111,35.66321163888889],[9.131015444444445,35.59781388888889],[9.103479527777777,35.53930011111111],[9.103479527777777,35.42571452777778],[9.103479527777777,35.32933888888889],[9.065617666666668,35.229521250000005],[9.020871833333334,35.15035555555556],[8.979568,35.10216772222223],[8.886634333333333,35.05053791666666],[8.711093,34.99202413888889],[8.521783694444446,34.97137222222222],[8.387546194444443,34.950720305555556],[8.304938527777779,34.950720305555556],[8.264671043760496,34.95331820673575],[8.259009,34.940659],[8.248881,34.901955],[8.250741,34.864746],[8.269345,34.763874],[8.266555,34.750282],[8.258715,34.741299],[8.257356,34.739742],[8.225213,34.711681],[8.213431,34.696747],[8.210641,34.68119],[8.236479,34.647655],[8.22883,34.63644],[8.192863,34.617733],[8.18656,34.60957],[8.179531,34.592152],[8.175191,34.585281],[8.167232,34.578564],[8.143668,34.566727],[8.102483,34.536354],[8.094058,34.53014],[7.999077,34.494175],[7.957323,34.469421],[7.87061,34.437901],[7.831542,34.414387],[7.811905,34.379272],[7.7944915864158,34.324508156619515],[7.826502305555556,34.31739466666667],[7.988275694444445,34.313952666666665],[8.10530325,34.31739466666667],[8.24298275,34.33116261111111],[8.418524083333333,34.36902447222222],[8.590623444444445,34.43442222222222],[8.707650999999998,34.46195813888889],[8.793700694444444,34.46195813888889],[8.859098444444443,34.44819016666666],[8.900402305555556,34.41721230555555],[8.87286638888889,34.33460461111111],[8.831562555555555,34.25888088888889],[8.790258694444445,34.19004113888889],[8.731744916666667,34.08333952777778],[8.824678583333332,34.073013583333335],[8.986451972222222,34.107433444444446],[9.127573444444446,34.16594722222222],[9.234275055555555,34.20725108333334],[9.309998777777778,34.28985877777777],[9.399490416666666,34.41721230555555],[9.495866083333333,34.54800780555556],[9.540611916666666,34.71666516666667],[9.606009666666667,34.874996583333335],[9.643871527777778,35.05053791666666],[9.709269277777777,35.14347158333333],[9.75401511111111,35.198543388888886],[9.788434972222221,35.25017319444444],[9.802202916666667,35.356874777777776],[9.82285486111111,35.4360405],[9.902020555555556,35.518648194444445],[10.005280166666667,35.59092991666667],[10.118865750000001,35.64600169444444],[10.198031444444444,35.67353761111111],[10.404550666666667,35.714841444444446],[10.61795388888889,35.752703305555556],[10.723156640278404,35.77608170074275],[10.713064,35.779243],[10.693695,35.787788],[10.691336,35.789619],[10.622081,35.842598],[10.608572,35.855862],[10.582286,35.921822],[10.570323,35.931587],[10.556488,35.937973],[10.540538,35.952827],[10.518565,35.979965],[10.514822,35.989082],[10.509125,36.011177],[10.50473,36.020943],[10.499847,36.02729],[10.492393,36.045341],[10.490697577800226,36.04981951848916],[10.463064472222221,36.04871419444444]]]}
    },
    {
      "type": "Feature",
      "properties": { "param": "P100", "value": 250, "name": "P100 = 250 mm", "fill": "#6A1B9A", "clipped": true, "p100": 250 },
      "geometry": {"type":"Polygon","coordinates":[[[11.450681363692329,32.636531176585876],[11.449926,32.637959],[11.449203,32.69302],[11.463776,32.798466],[11.45654,32.9021],[11.474421,32.969875],[11.474937,33.025841],[11.477418,33.041214],[11.506046,33.136375],[11.505112,33.181225],[11.504568,33.181343],[11.497813,33.182686],[11.442393,33.204659],[11.351898,33.258858],[11.367442,33.245266],[11.381358,33.230698],[11.392752,33.224106],[11.410655,33.218941],[11.427582,33.207016],[11.433116,33.19355],[11.416759,33.183784],[11.372244,33.183784],[11.287852,33.21011],[11.245372,33.217922],[11.201508,33.211166],[11.179535,33.211086],[11.170177,33.221016],[11.163341,33.242622],[11.147716,33.256905],[11.131521,33.268051],[11.121837,33.280014],[11.133636,33.311428],[11.181895,33.306789],[11.28004,33.280014],[11.284434,33.28083],[11.287364,33.282051],[11.293712,33.286812],[11.269053,33.294258],[11.217784,33.316311],[11.193858,33.320992],[11.170665,33.331772],[11.150889,33.353951],[11.131114,33.371529],[11.102074,33.364082],[11.110784,33.392971],[11.08993,33.454147],[11.116621,33.489971],[11.111583,33.540024],[11.108165,33.549629],[11.073578,33.594467],[11.060313,33.608345],[11.042816,33.617867],[11.000662,33.634182],[10.98463,33.643135],[10.977875,33.643135],[10.971446,33.631905],[10.960623,33.62767],[10.947927,33.629463],[10.936209,33.636299],[10.906505,33.61644],[10.90919,33.607857],[10.92628,33.591255],[10.932791,33.574043],[10.92514,33.55508],[10.909434,33.539619],[10.892263,33.533272],[10.856212,33.524319],[10.780528,33.485744],[10.738129,33.478012],[10.717133,33.483547],[10.703624,33.49604],[10.679942,33.529854],[10.674083,33.545601],[10.679047,33.562569],[10.691417,33.576118],[10.70753,33.581692],[10.736923,33.602852],[10.739992,33.671577],[10.716644,33.706936],[10.697618,33.702599],[10.634071,33.673626],[10.558373,33.65572],[10.489268,33.647121],[10.460216,33.652695],[10.446055,33.655422],[10.367686,33.684067],[10.330252,33.702827],[10.186859,33.821762],[10.172699,33.828072],[10.163096,33.83625],[10.0713,33.946236],[10.048839,33.983467],[10.039317,34.016098],[10.036143,34.034492],[10.021495,34.073311],[10.01824,34.091537],[10.018402,34.133492],[10.014659,34.153389],[10.005218,34.170639],[10.010101,34.17308],[10.010264,34.173164],[10.018809,34.180569],[10.032777,34.184654],[10.054034,34.213161],[10.089778,34.272976],[10.102161,34.304073],[10.126719,34.32563],[10.166677,34.338814],[10.186778,34.351955],[10.234222,34.369331],[10.247244,34.372139],[10.256602,34.379097],[10.278006,34.402737],[10.281993,34.408882],[10.288096,34.414009],[10.300059,34.417709],[10.31129,34.416817],[10.320486,34.413235],[10.330414,34.412582],[10.378723,34.42308],[10.431895,34.496323],[10.465994,34.511948],[10.559377,34.523491],[10.581615,34.53268],[10.597023,34.544712],[10.598752,34.562454],[10.605709,34.573669],[10.607432,34.59333],[10.615001,34.603584],[10.619884,34.615871],[10.621429,34.626289],[10.625255,34.633247],[10.634288,34.637886],[10.701182,34.655952],[10.717296,34.664742],[10.734711,34.680855],[10.743988,34.698677],[10.763469,34.713448],[10.779042,34.739502],[10.811262,34.768879],[10.834885,34.783398],[10.871421,34.797367],[10.867357,34.811031],[10.856293,34.830879],[10.860362,34.836819],[10.86671,34.841255],[10.875499,34.849068],[10.916336,34.87357],[10.916514,34.913315],[10.924952,34.93412],[10.917654,34.957424],[10.945863,34.983532],[10.984366,34.999413],[11.018106,35.034191],[11.022452,35.064503],[11.01588,35.092842],[11.03499,35.107056],[11.04883,35.131222],[11.062912,35.153641],[11.092316,35.173939],[11.111578,35.205593],[11.131352,35.21796],[11.15916,35.218758],[11.160782,35.238232],[11.147104,35.244007],[11.122081,35.253647],[11.101329,35.26683],[11.06589,35.303268],[11.042232,35.334435],[11.037188,35.370823],[11.049412,35.391254],[11.04553,35.434753],[11.050666,35.459782],[11.05769,35.486732],[11.085057,35.506786],[11.039236,35.518501],[11.023936,35.53376],[11.014903,35.555161],[11.013927,35.562893],[11.011973,35.579048],[11.0171,35.60228],[11.055021,35.614475],[11.040998,35.63773],[11.011973,35.657906],[10.971816,35.654137],[10.881521,35.68301],[10.841156,35.698799],[10.8296,35.71312],[10.824522,35.733391],[10.830339,35.753235],[10.84142,35.766548],[10.82309,35.780464],[10.813812,35.784981],[10.803721,35.786934],[10.74362,35.769672],[10.713064,35.779243],[10.71048039225139,35.78038280733192],[10.34775788888889,35.71914394444445],[10.058630972222224,35.615884305555554],[9.862437694444445,35.49197277777778],[9.75401511111111,35.368061250000004],[9.800481944444446,35.22866077777778],[9.666244444444445,35.07377133333333],[9.599125694444446,34.90339297222222],[9.537169916666667,34.66589586111111],[9.428747333333332,34.449050666666665],[9.34613963888889,34.33546511111111],[9.206739138888889,34.201227611111115],[9.077664638888889,34.13927183333333],[8.989893972222221,34.09796797222222],[8.783374722222222,34.08247905555556],[9.010545888888888,33.99987136111111],[9.139620388888888,33.948241555555555],[9.253205972222222,33.86047086111111],[9.397769444444444,33.70558144444445],[9.526843944444446,33.52487711111111],[9.676570388888889,33.406128555555554],[9.877926638888889,33.30286894444444],[10.058630972222224,33.19960933333333],[10.172216555555554,33.14797952777778],[10.34775788888889,32.98276413888889],[10.507810305555555,32.84852663888889],[10.709166555555555,32.72461511111111],[11.091227111111111,32.62651847222222],[11.385517027777777,32.54907377777778],[11.450681363692329,32.636531176585876]]]}
    }
  ]
}
